GLOBALSTAR M063         
1 26081U 00008A   24226.34977574 -.00000044  00000+0  56938-3 0  9999
2 26081  51.9924 202.2968 0004532  80.1387  68.9658 11.86159720121049
GLOBALSTAR M062         
1 26082U 00008B   24226.51765264 -.00000062  00000+0  25724-3 0  9999
2 26082  51.9841 280.5337 0007347 174.3603 333.9752 12.43442083120849
GLOBALSTAR M060         
1 26083U 00008C   24226.33816292  .00000038  00000+0  12862-2 0  9998
2 26083  51.9995 197.5126 0003238 222.8692 285.6735 12.17638937114860
GLOBALSTAR M064         
1 26084U 00008D   24226.50599118 -.00000061  00000+0  31241-3 0  9993
2 26084  52.0045 304.3458 0001791 172.8925 187.1933 11.88521037130515
GLOBALSTAR M065         
1 31571U 07020A   24226.52078609 -.00000112  00000+0 -44183-4 0  9998
2 31571  51.9892  82.6824 0010181 349.9910  36.4511 12.61975255794563
GLOBALSTAR M069         
1 31573U 07020C   24226.84549253 -.00000061  00000+0  23732-3 0  9991
2 31573  51.9961  37.4476 0001045  95.5787  53.3837 12.62245799795663
GLOBALSTAR M072         
1 31574U 07020D   24226.52965363 -.00000071  00000+0  18161-3 0  9992
2 31574  52.0077 134.4013 0000912  30.1563 141.0972 12.62261770793961
GLOBALSTAR M071         
1 31576U 07020F   24226.60780755 -.00000062  00000+0  23352-3 0  9991
2 31576  52.0074  43.3821 0001356 112.7861 275.1806 12.62272353456898
